DELTA 2 R/B(1)          
1 20453U 90008B   26039.26938882  .00072087  00000+0  95375-3 0  9992
2 20453  35.6064   7.3242 0094647 344.1602  15.6181 15.51894752921559
COSMOS 2058             
1 20465U 90010A   26039.11611026  .00004511  00000+0  26772-3 0  9992
2 20465  82.4638  76.5618 0012038  79.6480 280.6106 15.11047229937779
SL-14 R/B               
1 20466U 90010B   26039.21250898  .00000551  00000+0  63812-4 0  9997
2 20466  82.5028 295.0782 0020848  40.4280 319.8479 14.83543037924114
SL-14 R/B               
1 20511U 90018B   26039.06684742  .00000479  00000+0  57171-4 0  9998
2 20511  82.5182 250.7843 0016175 184.5888 175.5181 14.82113780918199
HST                     
1 20580U 90037B   26038.79235705  .00007968  00000+0  26695-3 0  9991
2 20580  28.4662 243.8802 0001811 133.8603 226.2143 15.29001499768738
SL-16 R/B               
1 20625U 90046B   26039.21871453  .00000178  00000+0  11647-3 0  9992
2 20625  71.0002 359.8049 0014667 340.6319  19.4244 14.15005909844223
COSMOS 2084             
1 20663U 90055A   26039.23196275  .00002968  00000+0  21857-3 0  9991
2 20663  62.7899  76.0335 0021777 183.8893 176.2042 15.05459619931884
SL-6 R/B(2)             
1 20666U 90055D   26039.24129395  .00003145  00000+0  24341-3 0  9993
2 20666  62.7850 353.9815 0020343 338.5844  21.4402 15.03438528933761
SL-8 R/B                
1 20775U 90078B   26039.13297816  .00017873  00000+0  52693-3 0  9995
2 20775  82.9022 277.8701 0367101 113.0260 251.0115 14.88087113804906
SL-8 R/B                
1 21088U 91006B   26038.92654598  .00000036  00000+0  20103-4 0  9990
2 21088  82.9431 192.1736 0023597 117.4781 356.2906 13.77492051759979
OKEAN-3                 
1 21397U 91039A   26039.28567218  .00003949  00000+0  27886-3 0  9991
2 21397  82.5180   5.3205 0016505  73.3873 286.9165 15.04569623860610
COSMOS 2151             
1 21422U 91042A   26039.26580605  .00002488  00000+0  19772-3 0  9999
2 21422  82.4963 112.0593 0013238 152.9671 207.2245 14.99991484858780
