CCSDS_OMM_VERS = 2.0
CREATION_DATE  = 
ORIGINATOR     = 

OBJECT_NAME    = DELTA 2 R/B(1)
OBJECT_ID      = 1990-008B
CENTER_NAME    = EARTH
REF_FRAME      = TEME
TIME_SYSTEM    = UTC
MEAN_ELEMENT_THEORY = SGP/SGP4

EPOCH          = 2026-02-08T06:27:55.194048
MEAN_MOTION    = 15.51894752
ECCENTRICITY   = .00946477
INCLINATION    = 35.6064
RA_OF_ASC_NODE = 7.3242
ARG_OF_PERICENTER = 344.1602
MEAN_ANOMALY   = 15.6181

EPHEMERIS_TYPE = 0
CLASSIFICATION_TYPE = U
NORAD_CAT_ID   = 20453
ELEMENT_SET_NO = 999
REV_AT_EPOCH   = 92155
BSTAR          = .95374622E-3
MEAN_MOTION_DOT = .72087E-3
MEAN_MOTION_DDOT = 0

CCSDS_OMM_VERS = 2.0
CREATION_DATE  = 
ORIGINATOR     = 

OBJECT_NAME    = COSMOS 2058
OBJECT_ID      = 1990-010A
CENTER_NAME    = EARTH
REF_FRAME      = TEME
TIME_SYSTEM    = UTC
MEAN_ELEMENT_THEORY = SGP/SGP4

EPOCH          = 2026-02-08T02:47:11.926464
MEAN_MOTION    = 15.11047229
ECCENTRICITY   = .00120389
INCLINATION    = 82.4638
RA_OF_ASC_NODE = 76.5618
ARG_OF_PERICENTER = 79.6480
MEAN_ANOMALY   = 280.6106

EPHEMERIS_TYPE = 0
CLASSIFICATION_TYPE = U
NORAD_CAT_ID   = 20465
ELEMENT_SET_NO = 999
REV_AT_EPOCH   = 93777
BSTAR          = .26772335E-3
MEAN_MOTION_DOT = .4511E-4
MEAN_MOTION_DDOT = 0

CCSDS_OMM_VERS = 2.0
CREATION_DATE  = 
ORIGINATOR     = 

OBJECT_NAME    = SL-14 R/B
OBJECT_ID      = 1990-010B
CENTER_NAME    = EARTH
REF_FRAME      = TEME
TIME_SYSTEM    = UTC
MEAN_ELEMENT_THEORY = SGP/SGP4

EPOCH          = 2026-02-08T05:06:00.775872
MEAN_MOTION    = 14.83543037
ECCENTRICITY   = .00208484
INCLINATION    = 82.5028
RA_OF_ASC_NODE = 295.0782
ARG_OF_PERICENTER = 40.4280
MEAN_ANOMALY   = 319.8479

EPHEMERIS_TYPE = 0
CLASSIFICATION_TYPE = U
NORAD_CAT_ID   = 20466
ELEMENT_SET_NO = 999
REV_AT_EPOCH   = 92411
BSTAR          = .63811567E-4
MEAN_MOTION_DOT = .551E-5
MEAN_MOTION_DDOT = 0

CCSDS_OMM_VERS = 2.0
CREATION_DATE  = 
ORIGINATOR     = 

OBJECT_NAME    = SL-14 R/B
OBJECT_ID      = 1990-018B
CENTER_NAME    = EARTH
REF_FRAME      = TEME
TIME_SYSTEM    = UTC
MEAN_ELEMENT_THEORY = SGP/SGP4

EPOCH          = 2026-02-08T01:36:15.617088
MEAN_MOTION    = 14.82113780
ECCENTRICITY   = .0016175
INCLINATION    = 82.5182
RA_OF_ASC_NODE = 250.7843
ARG_OF_PERICENTER = 184.5888
MEAN_ANOMALY   = 175.5181

EPHEMERIS_TYPE = 0
CLASSIFICATION_TYPE = U
NORAD_CAT_ID   = 20511
ELEMENT_SET_NO = 999
REV_AT_EPOCH   = 91819
BSTAR          = .57170739E-4
MEAN_MOTION_DOT = .479E-5
MEAN_MOTION_DDOT = 0

CCSDS_OMM_VERS = 2.0
CREATION_DATE  = 
ORIGINATOR     = 

OBJECT_NAME    = HST
OBJECT_ID      = 1990-037B
CENTER_NAME    = EARTH
REF_FRAME      = TEME
TIME_SYSTEM    = UTC
MEAN_ELEMENT_THEORY = SGP/SGP4

EPOCH          = 2026-02-07T19:00:59.649120
MEAN_MOTION    = 15.29001499
ECCENTRICITY   = .00018113
INCLINATION    = 28.4662
RA_OF_ASC_NODE = 243.8802
ARG_OF_PERICENTER = 133.8603
MEAN_ANOMALY   = 226.2143

EPHEMERIS_TYPE = 0
CLASSIFICATION_TYPE = U
NORAD_CAT_ID   = 20580
ELEMENT_SET_NO = 999
REV_AT_EPOCH   = 76873
BSTAR          = .26695009E-3
MEAN_MOTION_DOT = .7968E-4
MEAN_MOTION_DDOT = 0

CCSDS_OMM_VERS = 2.0
CREATION_DATE  = 
ORIGINATOR     = 

OBJECT_NAME    = SL-16 R/B
OBJECT_ID      = 1990-046B
CENTER_NAME    = EARTH
REF_FRAME      = TEME
TIME_SYSTEM    = UTC
MEAN_ELEMENT_THEORY = SGP/SGP4

EPOCH          = 2026-02-08T05:14:56.935392
MEAN_MOTION    = 14.15005909
ECCENTRICITY   = .00146672
INCLINATION    = 71.0002
RA_OF_ASC_NODE = 359.8049
ARG_OF_PERICENTER = 340.6319
MEAN_ANOMALY   = 19.4244

EPHEMERIS_TYPE = 0
CLASSIFICATION_TYPE = U
NORAD_CAT_ID   = 20625
ELEMENT_SET_NO = 999
REV_AT_EPOCH   = 84422
BSTAR          = .11647047E-3
MEAN_MOTION_DOT = .178E-5
MEAN_MOTION_DDOT = 0

CCSDS_OMM_VERS = 2.0
CREATION_DATE  = 
ORIGINATOR     = 

OBJECT_NAME    = COSMOS 2084
OBJECT_ID      = 1990-055A
CENTER_NAME    = EARTH
REF_FRAME      = TEME
TIME_SYSTEM    = UTC
MEAN_ELEMENT_THEORY = SGP/SGP4

EPOCH          = 2026-02-08T05:34:01.581600
MEAN_MOTION    = 15.05459619
ECCENTRICITY   = .00217772
INCLINATION    = 62.7899
RA_OF_ASC_NODE = 76.0335
ARG_OF_PERICENTER = 183.8893
MEAN_ANOMALY   = 176.2042

EPHEMERIS_TYPE = 0
CLASSIFICATION_TYPE = U
NORAD_CAT_ID   = 20663
ELEMENT_SET_NO = 999
REV_AT_EPOCH   = 93188
BSTAR          = .21857488E-3
MEAN_MOTION_DOT = .2968E-4
MEAN_MOTION_DDOT = 0

CCSDS_OMM_VERS = 2.0
CREATION_DATE  = 
ORIGINATOR     = 

OBJECT_NAME    = SL-6 R/B(2)
OBJECT_ID      = 1990-055D
CENTER_NAME    = EARTH
REF_FRAME      = TEME
TIME_SYSTEM    = UTC
MEAN_ELEMENT_THEORY = SGP/SGP4

EPOCH          = 2026-02-08T05:47:27.797280
MEAN_MOTION    = 15.03438528
ECCENTRICITY   = .00203434
INCLINATION    = 62.7850
RA_OF_ASC_NODE = 353.9815
ARG_OF_PERICENTER = 338.5844
MEAN_ANOMALY   = 21.4402

EPHEMERIS_TYPE = 0
CLASSIFICATION_TYPE = U
NORAD_CAT_ID   = 20666
ELEMENT_SET_NO = 999
REV_AT_EPOCH   = 93376
BSTAR          = .24341108E-3
MEAN_MOTION_DOT = .3145E-4
MEAN_MOTION_DDOT = 0

CCSDS_OMM_VERS = 2.0
CREATION_DATE  = 
ORIGINATOR     = 

OBJECT_NAME    = SL-8 R/B
OBJECT_ID      = 1990-078B
CENTER_NAME    = EARTH
REF_FRAME      = TEME
TIME_SYSTEM    = UTC
MEAN_ELEMENT_THEORY = SGP/SGP4

EPOCH          = 2026-02-08T03:11:29.313024
MEAN_MOTION    = 14.88087113
ECCENTRICITY   = .03671015
INCLINATION    = 82.9022
RA_OF_ASC_NODE = 277.8701
ARG_OF_PERICENTER = 113.0260
MEAN_ANOMALY   = 251.0115

EPHEMERIS_TYPE = 0
CLASSIFICATION_TYPE = U
NORAD_CAT_ID   = 20775
ELEMENT_SET_NO = 999
REV_AT_EPOCH   = 80490
BSTAR          = .5269279E-3
MEAN_MOTION_DOT = .17873E-3
MEAN_MOTION_DDOT = 0

CCSDS_OMM_VERS = 2.0
CREATION_DATE  = 
ORIGINATOR     = 

OBJECT_NAME    = SL-8 R/B
OBJECT_ID      = 1991-006B
CENTER_NAME    = EARTH
REF_FRAME      = TEME
TIME_SYSTEM    = UTC
MEAN_ELEMENT_THEORY = SGP/SGP4

EPOCH          = 2026-02-07T22:14:13.572672
MEAN_MOTION    = 13.77492051
ECCENTRICITY   = .0023597
INCLINATION    = 82.9431
RA_OF_ASC_NODE = 192.1736
ARG_OF_PERICENTER = 117.4781
MEAN_ANOMALY   = 356.2906

EPHEMERIS_TYPE = 0
CLASSIFICATION_TYPE = U
NORAD_CAT_ID   = 21088
ELEMENT_SET_NO = 999
REV_AT_EPOCH   = 75997
BSTAR          = .20103E-4
MEAN_MOTION_DOT = .36E-6
MEAN_MOTION_DDOT = 0

CCSDS_OMM_VERS = 2.0
CREATION_DATE  = 
ORIGINATOR     = 

OBJECT_NAME    = OKEAN-3
OBJECT_ID      = 1991-039A
CENTER_NAME    = EARTH
REF_FRAME      = TEME
TIME_SYSTEM    = UTC
MEAN_ELEMENT_THEORY = SGP/SGP4

EPOCH          = 2026-02-08T06:51:22.076352
MEAN_MOTION    = 15.04569623
ECCENTRICITY   = .00165052
INCLINATION    = 82.5180
RA_OF_ASC_NODE = 5.3205
ARG_OF_PERICENTER = 73.3873
MEAN_ANOMALY   = 286.9165

EPHEMERIS_TYPE = 0
CLASSIFICATION_TYPE = U
NORAD_CAT_ID   = 21397
ELEMENT_SET_NO = 999
REV_AT_EPOCH   = 86061
BSTAR          = .27885653E-3
MEAN_MOTION_DOT = .3949E-4
MEAN_MOTION_DDOT = 0

CCSDS_OMM_VERS = 2.0
CREATION_DATE  = 
ORIGINATOR     = 

OBJECT_NAME    = COSMOS 2151
OBJECT_ID      = 1991-042A
CENTER_NAME    = EARTH
REF_FRAME      = TEME
TIME_SYSTEM    = UTC
MEAN_ELEMENT_THEORY = SGP/SGP4

EPOCH          = 2026-02-08T06:22:45.642720
MEAN_MOTION    = 14.99991484
ECCENTRICITY   = .00132382
INCLINATION    = 82.4963
RA_OF_ASC_NODE = 112.0593
ARG_OF_PERICENTER = 152.9671
MEAN_ANOMALY   = 207.2245

EPHEMERIS_TYPE = 0
CLASSIFICATION_TYPE = U
NORAD_CAT_ID   = 21422
ELEMENT_SET_NO = 999
REV_AT_EPOCH   = 85878
BSTAR          = .19772104E-3
MEAN_MOTION_DOT = .2488E-4
MEAN_MOTION_DDOT = 0

